NORAD_CAT_ID,OBJECT_NAME,OBJECT_TYPE,EPOCH,MEAN_MOTION,ECCENTRICITY,INCLINATION,RA_OF_ASC_NODE,ARG_OF_PERICENTER,MEAN_ANOMALY,BSTAR,MEAN_MOTION_DOT,MEAN_MOTION_DDOT,TLE_LINE0,TLE_LINE1,TLE_LINE2,SEMIMAJOR_AXIS,PERIOD,APOGEE,PERIGEE,DECAYED
49141.0,STARLINK-3093,PAYLOAD,2024-06-08 22:48:34,14.98328208,0.0002466,70.002,104.9557,270.4562,89.6314,1.8829e-07,-9.1e-07,0.0,0 STARLINK-3093,1 49141U 21082M   24160.95039521 -.00000091  00000-0  18829-6 0  9994,2 49141  70.0020 104.9557 0002466 270.4562  89.6314 14.98328208151503,6950.198,96.107,573.777,570.35,0.0
49141.0,STARLINK-3093,PAYLOAD,2024-06-09 06:49:14,14.98327313,0.0002712,70.0003,104.1144,264.4808,95.6042,-2.3133e-05,-3.69e-06,0.0,0 STARLINK-3093,1 49141U 21082M   24161.28419609 -.00000369  00000-0 -23133-4 0  9991,2 49141  70.0003 104.1144 0002712 264.4808  95.6042 14.98327313151554,6950.201,96.107,573.951,570.181,0.0
49141.0,STARLINK-3093,PAYLOAD,2024-06-09 21:14:27,14.9832829,0.0002635,69.9997,102.5987,262.6874,97.3986,-2.3814e-05,-3.77e-06,0.0,0 STARLINK-3093,1 49141U 21082M   24161.88503586 -.00000377  00000-0 -23814-4 0  9990,2 49141  69.9997 102.5987 0002635 262.6874  97.3986 14.98328290151648,6950.198,96.107,573.895,570.232,0.0
49141.0,STARLINK-3093,PAYLOAD,2024-06-09 22:50:35,14.98327223,0.0002689,69.9995,102.4308,263.6737,96.4116,-1.3924e-05,-2.59e-06,0.0,0 STARLINK-3093,1 49141U 21082M   24161.95179624 -.00000259  00000-0 -13924-4 0  9990,2 49141  69.9995 102.4308 0002689 263.6737  96.4116 14.98327223151651,6950.201,96.107,573.935,570.198,0.0
49141.0,STARLINK-3093,PAYLOAD,2024-06-10 13:15:46,14.98363098,0.0002949,70.0,100.9146,279.1572,80.9254,-0.00055628,-6.73e-05,0.0,0 STARLINK-3093,1 49141U 21082M   24162.55262458 -.00006730  00000-0 -55628-3 0  9991,2 49141  70.0000 100.9146 0002949 279.1572  80.9254 14.98363098151743,6950.091,96.105,574.005,569.906,0.0
49141.0,STARLINK-3093,PAYLOAD,2024-06-10 21:16:28,14.98325919,0.0002648,70.0001,100.0741,270.2166,89.869,5.3058e-05,5.4e-06,0.0,0 STARLINK-3093,1 49141U 21082M   24162.88643608  .00000540  00000-0  53058-4 0  9994,2 49141  70.0001 100.0741 0002648 270.2166  89.8690 14.98325919151790,6950.206,96.107,573.911,570.23,0.0
49141.0,STARLINK-3093,PAYLOAD,2024-06-10 22:52:36,14.98324671,0.0002829,69.9996,99.9074,267.564,92.5195,5.8135e-05,6.01e-06,0.0,0 STARLINK-3093,1 49141U 21082M   24162.95319648  .00000601  00000-0  58135-4 0  9995,2 49141  69.9996  99.9074 0002829 267.5640  92.5195 14.98324671151809,6950.209,96.107,574.041,570.108,0.0
49141.0,STARLINK-3093,PAYLOAD,2024-06-11 13:17:48,14.9832924,0.000282,69.9994,98.391,267.6263,92.4573,4.7792e-05,4.77e-06,0.0,0 STARLINK-3093,1 49141U 21082M   24163.55403376  .00000477  00000-0  47792-4 0  9992,2 49141  69.9994  98.3910 0002820 267.6263  92.4573 14.98329240151897,6950.195,96.107,574.02,570.1,0.0
49141.0,STARLINK-3093,PAYLOAD,2024-06-12 05:19:08,14.98332342,0.0002813,69.9995,96.7073,267.1815,92.9022,6.1561e-05,6.42e-06,0.0,0 STARLINK-3093,1 49141U 21082M   24164.22163111  .00000642  00000-0  61561-4 0  9991,2 49141  69.9995  96.7073 0002813 267.1815  92.9022 14.98332342151992,6950.186,96.107,574.006,570.096,0.0
49141.0,STARLINK-3093,PAYLOAD,2024-06-12 21:20:30,14.98315951,0.000289,69.9994,95.024,268.817,91.2657,0.00018444,2.108e-05,0.0,0 STARLINK-3093,1 49141U 21082M   24164.88923797  .00002108  00000-0  18444-3 0  9997,2 49141  69.9994  95.0240 0002890 268.8170  91.2657 14.98315951152091,6950.236,96.108,574.11,570.093,0.0
49141.0,STARLINK-3093,PAYLOAD,2024-06-13 05:21:10,14.98331404,0.0002883,69.9996,94.1823,269.6816,90.4013,-1.9625e-05,-3.27e-06,0.0,0 STARLINK-3093,1 49141U 21082M   24165.22303346 -.00000327  00000-0 -19625-4 0  9994,2 49141  69.9996  94.1823 0002883 269.6816  90.4013 14.98331404152142,6950.189,96.107,574.057,570.05,0.0
49141.0,STARLINK-3093,PAYLOAD,2024-06-13 22:58:38,14.98331329,0.0002901,69.9997,92.3308,269.8131,90.2696,1.1636e-05,4.6e-07,0.0,0 STARLINK-3093,1 49141U 21082M   24165.95739178  .00000046  00000-0  11636-4 0  9990,2 49141  69.9997  92.3308 0002901 269.8131  90.2696 14.98331329152257,6950.189,96.107,574.07,570.038,0.0
49141.0,STARLINK-3093,PAYLOAD,2024-06-14 11:47:43,14.98334757,0.0002892,70.0001,90.9851,271.673,88.4098,-6.6279e-05,-8.84e-06,0.0,0 STARLINK-3093,1 49141U 21082M   24166.49147058 -.00000884  00000-0 -66279-4 0  9995,2 49141  70.0001  90.9851 0002892 271.6730  88.4098 14.98334757152330,6950.178,96.107,574.053,570.033,0.0
49141.0,STARLINK-3093,PAYLOAD,2024-06-14 23:00:39,14.98325427,0.0002845,70.0001,89.807,273.6646,86.4188,-8.2318e-06,-1.91e-06,0.0,0 STARLINK-3093,1 49141U 21082M   24166.95879583 -.00000191  00000-0 -82318-5 0  9995,2 49141  70.0001  89.8070 0002845 273.6646  86.4188 14.98325427152406,6950.207,96.107,574.049,570.095,0.0
49141.0,STARLINK-3093,PAYLOAD,2024-06-15 11:49:44,14.98327317,0.000274,70.0002,88.4612,264.5297,95.555,6.1106e-05,6.36e-06,0.0,0 STARLINK-3093,1 49141U 21082M   24167.49287292  .00000636  00000-0  61106-4 0  9998,2 49141  70.0002  88.4612 0002740 264.5297  95.5550 14.98327317152481,6950.201,96.107,573.971,570.162,0.0
49141.0,STARLINK-3093,PAYLOAD,2024-06-15 21:26:32,14.98334838,0.0002852,69.9997,87.4509,267.9289,92.1543,2.0294e-05,1.49e-06,0.0,0 STARLINK-3093,1 49141U 21082M   24167.89342805  .00000149  00000-0  20294-4 0  9996,2 49141  69.9997  87.4509 0002852 267.9289  92.1543 14.98334838152545,6950.178,96.107,574.025,570.061,0.0
49141.0,STARLINK-3093,PAYLOAD,2024-06-16 03:51:04,14.98337769,0.0002827,69.9999,86.7776,268.1977,91.8858,5.3205e-05,5.42e-06,0.0,0 STARLINK-3093,1 49141U 21082M   24168.16046438  .00000542  00000-0  53205-4 0  9995,2 49141  69.9999  86.7776 0002827 268.1977  91.8858 14.98337769152589,6950.169,96.107,573.999,570.069,0.0
49141.0,STARLINK-3093,PAYLOAD,2024-06-16 21:28:33,14.98324408,0.0002667,69.9999,84.9258,267.1178,92.9676,-2.678e-05,-4.12e-06,0.0,0 STARLINK-3093,1 49141U 21082M   24168.89483480 -.00000412  00000-0 -26780-4 0  9993,2 49141  69.9999  84.9258 0002667 267.1178  92.9676 14.98324408152696,6950.21,96.107,573.929,570.222,0.0
49141.0,STARLINK-3093,PAYLOAD,2024-06-17 21:30:34,14.98335656,0.0002768,69.9995,82.4006,272.7884,87.2958,-0.0001304,-1.649e-05,0.0,0 STARLINK-3093,1 49141U 21082M   24169.89623200 -.00001649  00000-0 -13040-3 0  9997,2 49141  69.9995  82.4006 0002768 272.7884  87.2958 14.98335656152848,6950.175,96.107,573.964,570.117,0.0
49141.0,STARLINK-3093,PAYLOAD,2024-06-18 11:55:46,14.98330754,0.0002897,69.9994,80.8849,270.5879,89.4948,6.6057e-05,6.95e-06,0.0,0 STARLINK-3093,1 49141U 21082M   24170.49706895  .00000695  00000-0  66057-4 0  9992,2 49141  69.9994  80.8849 0002897 270.5879  89.4948 14.98330754152934,6950.191,96.107,574.069,570.042,0.0
49141.0,STARLINK-3093,PAYLOAD,2024-06-18 21:32:35,14.98331047,0.0002926,69.9995,79.875,270.7447,89.3377,9.3143e-05,1.019e-05,0.0,0 STARLINK-3093,1 49141U 21082M   24170.89762774  .00001019  00000-0  93143-4 0  9991,2 49141  69.9995  79.8750 0002926 270.7447  89.3377 14.98331047152997,6950.19,96.107,574.088,570.021,0.0
49141.0,STARLINK-3093,PAYLOAD,2024-06-19 03:57:06,14.98334732,0.0002934,69.9995,79.2021,271.4301,88.6522,0.00012497,1.399e-05,0.0,0 STARLINK-3093,1 49141U 21082M   24171.16466407  .00001399  00000-0  12497-3 0  9999,2 49141  69.9995  79.2021 0002934 271.4301  88.6522 14.98334732153032,6950.178,96.107,574.082,570.004,0.0
49141.0,STARLINK-3093,PAYLOAD,2024-06-19 21:34:36,14.98328365,0.0002885,69.9996,77.3504,271.4553,88.6275,-8.1936e-06,-1.91e-06,0.0,0 STARLINK-3093,1 49141U 21082M   24171.89903132 -.00000191  00000-0 -81936-5 0  9997,2 49141  69.9996  77.3504 0002885 271.4553  88.6275 14.98328365153144,6950.198,96.107,574.068,570.058,0.0
49141.0,STARLINK-3093,PAYLOAD,2024-06-20 10:23:40,14.98329344,0.0002851,69.9998,76.0039,271.6936,88.3897,-1.8368e-05,-3.12e-06,0.0,0 STARLINK-3093,1 49141U 21082M   24172.43311037 -.00000312  00000-0 -18368-4 0  9998,2 49141  69.9998  76.0039 0002851 271.6936  88.3897 14.98329344153229,6950.195,96.107,574.041,570.078,0.0
49141.0,STARLINK-3093,PAYLOAD,2024-06-20 21:36:37,14.98331793,0.0002749,70.0001,74.8256,273.1125,86.9719,-5.8503e-05,-7.91e-06,0.0,0 STARLINK-3093,1 49141U 21082M   24172.90042983 -.00000791  00000-0 -58503-4 0  9997,2 49141  70.0001  74.8256 0002749 273.1125  86.9719 14.98331793153292,6950.187,96.107,573.963,570.142,0.0
49141.0,STARLINK-3093,PAYLOAD,2024-06-20 23:12:45,14.98331644,0.0002747,70.0001,74.6573,273.1566,86.9279,-5.8878e-05,-7.95e-06,0.0,0 STARLINK-3093,1 49141U 21082M   24172.96718987 -.00000795  00000-0 -58878-4 0  9996,2 49141  70.0001  74.6573 0002747 273.1566  86.9279 14.98331644153307,6950.188,96.107,573.962,570.144,0.0
49141.0,STARLINK-3093,PAYLOAD,2024-06-21 04:01:09,14.98333168,0.0002726,70.0001,74.1525,272.6418,87.4429,-3.1359e-05,-4.67e-06,0.0,0 STARLINK-3093,1 49141U 21082M   24173.16746790 -.00000467  00000-0 -31359-4 0  9993,2 49141  70.0001  74.1525 0002726 272.6418  87.4429 14.98333168153335,6950.183,96.107,573.943,570.153,0.0
49141.0,STARLINK-3093,PAYLOAD,2024-06-21 21:38:38,14.98328841,0.0002726,70.0001,72.3008,268.545,91.5397,-5.0402e-07,-9.9e-07,0.0,0 STARLINK-3093,1 49141U 21082M   24173.90182928 -.00000099  00000-0 -50402-6 0  9995,2 49141  70.0001  72.3008 0002726 268.5450  91.5397 14.98328841153445,6950.196,96.107,573.956,570.167,0.0
49141.0,STARLINK-3093,PAYLOAD,2024-06-22 02:27:02,14.98329808,0.0002717,70.0001,71.7958,268.3562,91.7286,1.0951e-05,3.8e-07,0.0,0 STARLINK-3093,1 49141U 21082M   24174.10210843  .00000038  00000-0  10951-4 0  9990,2 49141  70.0001  71.7958 0002717 268.3562  91.7286 14.98329808153470,6950.193,96.107,573.947,570.17,0.0
49141.0,STARLINK-3093,PAYLOAD,2024-06-22 21:40:38,14.98330959,0.0002762,70.0,69.7761,267.3102,92.7741,4.0643e-05,3.92e-06,0.0,0 STARLINK-3093,1 49141U 21082M   24174.90322619  .00000392  00000-0  40643-4 0  9997,2 49141  70.0000  69.7761 0002762 267.3102  92.7741 14.98330959153596,6950.19,96.107,573.975,570.135,0.0
